{
  "type": "FeatureCollection",
  "features": [
    {
      "type": "Feature",
      "properties": {
        "norad_id": 19071,
        "name": "OSCAR 32",
        "group": "nnss",
        "lat": 39.41242322143721,
        "lon": -163.34606505710303,
        "alt_km": 1039.529269527493,
        "timestamp": "2025-12-08T08:59:01.034418+00:00",
        "meta_object_name": "OSCAR 32",
        "meta_object_id": "1988-033B",
        "meta_epoch": "2025-12-07T20:29:02.184864",
        "meta_mean_motion": 13.27953117,
        "meta_eccentricity": 0.01879498,
        "meta_inclination": 90.3221,
        "meta_ra_of_asc_node": 16.3728,
        "meta_arg_of_pericenter": 180.3691,
        "meta_mean_anomaly": 353.0592,
        "meta_ephemeris_type": 0,
        "meta_classification_type": "U",
        "meta_norad_cat_id": 19071,
        "meta_element_set_no": 999,
        "meta_rev_at_epoch": 82200,
        "meta_bstar": 0.00018701038,
        "meta_mean_motion_dot": 1.02e-06,
        "meta_mean_motion_ddot": 0,
        "tle_line1": "1 19071U 88033B   25341.85349751  .00000102  00000+0  18701-3 0  9999",
        "tle_line2": "2 19071  90.3221  16.3728 0187949 180.3691 353.0592 13.27953117822008"
      },
      "geometry": {
        "type": "Point",
        "coordinates": [
          -163.34606505710303,
          39.41242322143721
        ]
      }
    },
    {
      "type": "Feature",
      "properties": {
        "norad_id": 19223,
        "name": "NOVA 2",
        "group": "nnss",
        "lat": 57.92016636558352,
        "lon": 78.29850739642669,
        "alt_km": 1147.5772338766837,
        "timestamp": "2025-12-08T08:59:01.034428+00:00",
        "meta_object_name": "NOVA 2",
        "meta_object_id": "1988-052A",
        "meta_epoch": "2025-12-07T20:36:24.060384",
        "meta_mean_motion": 13.22935083,
        "meta_eccentricity": 0.00309905,
        "meta_inclination": 89.987,
        "meta_ra_of_asc_node": 78.2784,
        "meta_arg_of_pericenter": 30.1334,
        "meta_mean_anomaly": 93.008,
        "meta_ephemeris_type": 0,
        "meta_classification_type": "U",
        "meta_norad_cat_id": 19223,
        "meta_element_set_no": 999,
        "meta_rev_at_epoch": 80883,
        "meta_bstar": 0.00029143842,
        "meta_mean_motion_dot": 1.31e-06,
        "meta_mean_motion_ddot": 0,
        "tle_line1": "1 19223U 88052A   25341.85861181  .00000131  00000+0  29144-3 0  9990",
        "tle_line2": "2 19223  89.9870  78.2784 0030990  30.1334  93.0080 13.22935083808834"
      },
      "geometry": {
        "type": "Point",
        "coordinates": [
          78.29850739642669,
          57.92016636558352
        ]
      }
    },
    {
      "type": "Feature",
      "properties": {
        "norad_id": 19419,
        "name": "OSCAR 25",
        "group": "nnss",
        "lat": -4.101768890965657,
        "lon": -159.77268897910523,
        "alt_km": 1083.5995477561746,
        "timestamp": "2025-12-08T08:59:01.034439+00:00",
        "meta_object_name": "OSCAR 25",
        "meta_object_id": "1988-074A",
        "meta_epoch": "2025-12-07T20:24:54.736128",
        "meta_mean_motion": 13.42622016,
        "meta_eccentricity": 0.00942814,
        "meta_inclination": 90.0351,
        "meta_ra_of_asc_node": 20.228,
        "meta_arg_of_pericenter": 260.0387,
        "meta_mean_anomaly": 275.2869,
        "meta_ephemeris_type": 0,
        "meta_classification_type": "U",
        "meta_norad_cat_id": 19419,
        "meta_element_set_no": 999,
        "meta_rev_at_epoch": 82574,
        "meta_bstar": 0.00026278018,
        "meta_mean_motion_dot": 1.61e-06,
        "meta_mean_motion_ddot": 0,
        "tle_line1": "1 19419U 88074A   25341.85063352  .00000161  00000+0  26278-3 0  9993",
        "tle_line2": "2 19419  90.0351  20.2280 0094281 260.0387 275.2869 13.42622016825740"
      },
      "geometry": {
        "type": "Point",
        "coordinates": [
          -159.77268897910523,
          -4.101768890965657
        ]
      }
    },
    {
      "type": "Feature",
      "properties": {
        "norad_id": 19420,
        "name": "OSCAR 31",
        "group": "nnss",
        "lat": 69.42611091040713,
        "lon": 20.481294008264108,
        "alt_km": 1162.1434671345587,
        "timestamp": "2025-12-08T08:59:01.034449+00:00",
        "meta_object_name": "OSCAR 31",
        "meta_object_id": "1988-074B",
        "meta_epoch": "2025-12-07T20:59:11.312736",
        "meta_mean_motion": 13.42583475,
        "meta_eccentricity": 0.00925501,
        "meta_inclination": 90.0367,
        "meta_ra_of_asc_node": 20.5773,
        "meta_arg_of_pericenter": 254.0731,
        "meta_mean_anomaly": 280.6814,
        "meta_ephemeris_type": 0,
        "meta_classification_type": "U",
        "meta_norad_cat_id": 19420,
        "meta_element_set_no": 999,
        "meta_rev_at_epoch": 82585,
        "meta_bstar": 0.00020915369,
        "meta_mean_motion_dot": 1.3e-06,
        "meta_mean_motion_ddot": 0,
        "tle_line1": "1 19420U 88074B   25341.87443649  .00000130  00000+0  20915-3 0  9996",
        "tle_line2": "2 19420  90.0367  20.5773 0092550 254.0731 280.6814 13.42583475825859"
      },
      "geometry": {
        "type": "Point",
        "coordinates": [
          20.481294008264108,
          69.42611091040713
        ]
      }
    }
  ]
}